GLOBALSTAR M067         
1 32263U 07048A   25280.90418715 -.00000092  00000+0  39346-4 0  9997
2 32263  51.9729  66.1077 0000962 174.4297 357.6255 12.40679228823477
GLOBALSTAR M070         
1 32264U 07048B   25280.87792847 -.00000038  00000+0  36465-3 0  9993
2 32264  51.9730 145.2000 0001006  70.6553 303.5167 12.62323984827900
GLOBALSTAR M066         
1 32265U 07048C   25280.85683935 -.00000106  00000+0 -93873-4 0  9993
2 32265  51.9595  62.2738 0004227 226.5084 291.8360 12.30378148829166
GLOBALSTAR M068         
1 32266U 07048D   25280.64136169 -.00000056  00000+0  26572-3 0  9997
2 32266  51.9897 319.4587 0001156  40.3197 111.1607 12.62830333831767
GLOBALSTAR M079         
1 37188U 10054A   25280.69168927 -.00000068  00000+0  19905-3 0  9993
2 37188  52.0021 157.3056 0000823  95.9233 299.2884 12.62267574690661
GLOBALSTAR M074         
1 37189U 10054B   25280.95097916 -.00000060  00000+0  24254-3 0  9997
2 37189  51.9998 155.8216 0000709  74.6413 298.8084 12.62272172691300
GLOBALSTAR M076         
1 37190U 10054C   25280.66431777 -.00000066  00000+0  20955-3 0  9994
2 37190  52.0014 156.8763 0000575  92.3146 297.2600 12.62265995690987
GLOBALSTAR M077         
1 37191U 10054D   25261.11398905 -.00000105  00000+0 -68518-5 0  9993
2 37191  52.0064 173.2575 0000611  67.5371  70.5425 12.62323380688888
